[{"OBJECT_NAME":"YAOGAN-39 02B","OBJECT_ID":"2023-145D","EPOCH":"2026-03-09T14:23:58.847424","MEAN_MOTION":15.16715423,"ECCENTRICITY":0.0004349,"INCLINATION":34.9899,"RA_OF_ASC_NODE":125.1097,"ARG_OF_PERICENTER":240.3858,"MEAN_ANOMALY":119.6421,"EPHEMERIS_TYPE":0,"CLASSIFICATION_TYPE":"U","NORAD_CAT_ID":57889,"ELEMENT_SET_NO":999,"REV_AT_EPOCH":13775,"BSTAR":0.00040419,"MEAN_MOTION_DOT":8.082e-5,"MEAN_MOTION_DDOT":0},{"OBJECT_NAME":"YUNYAO-1 20","OBJECT_ID":"2024-009C","EPOCH":"2026-03-08T20:04:07.118400","MEAN_MOTION":15.16183881,"ECCENTRICITY":0.00041003,"INCLINATION":49.9782,"RA_OF_ASC_NODE":295.7086,"ARG_OF_PERICENTER":240.5093,"MEAN_ANOMALY":119.545,"EPHEMERIS_TYPE":0,"CLASSIFICATION_TYPE":"U","NORAD_CAT_ID":58760,"ELEMENT_SET_NO":999,"REV_AT_EPOCH":11945,"BSTAR":0.00086011301,"MEAN_MOTION_DOT":0.00016572,"MEAN_MOTION_DDOT":0}]
