YAOGAN-39 02B           
1 57889U 23145D   26068.59998666  .00008082  00000+0  40419-3 0  9990
2 57889  34.9899 125.1097 0004349 240.3858 119.6421 15.16715423137758
YUNYAO-1 20             
1 58760U 24009C   26067.83619350  .00016572  00000+0  86011-3 0  9996
2 58760  49.9782 295.7086 0004100 240.5093 119.5450 15.16183881119459
